ONEWEB-0387             
1 49313U 21090AL  26189.73109999 -.00000116  00000+0 -31639-3 0  9999
2 49313  87.9174 270.1594 0002077  91.4331 268.7040 13.20772730232661
ONEWEB-0388             
1 49314U 21090AM  26189.86399421  .00000069  00000+0  14025-3 0  9990
2 49314  87.9182 300.6525 0001825  98.7963 261.3377 13.19726759229278
ONEWEB-0389             
1 50469U 21132A   26190.75175344  .00000111  00000+0  25316-3 0  9999
2 50469  87.9135   1.3784 0001805  80.6110 279.5225 13.17650403221054
ONEWEB-0390             
1 50470U 21132B   26190.75344105  .00000108  00000+0  24483-3 0  9994
2 50470  87.9139   1.3789 0002097  90.9019 269.2352 13.17650445221054
ONEWEB-0391             
1 50471U 21132C   26190.75512866  .00000066  00000+0  13616-3 0  9995
2 50471  87.9146   1.3888 0002301  71.8974 288.2408 13.17650615221051
ONEWEB-0392             
1 50472U 21132D   26190.70957162  .00000108  00000+0  24611-3 0  9997
2 50472  87.9146   1.3679 0001878  79.0667 281.0675 13.17650936221083
ONEWEB-0393             
1 50473U 21132E   26190.76103573  .00000121  00000+0  27884-3 0  9993
2 50473  87.9135   1.3729 0001859  86.1327 274.0017 13.17647897221083
ONEWEB-0394             
1 50474U 21132F   26190.63342333  .00000033  00000+0  49894-4 0  9997
2 50474  87.9188 330.9787 0001688  94.1168 266.0157 13.18684858224559
ONEWEB-0395             
1 50475U 21132G   26190.75089025  .00000234  00000+0  62549-3 0  9991
2 50475  87.8874  16.5736 0002015  84.9818 275.1539 13.11415119218672
ONEWEB-0396             
1 50476U 21132H   26190.62669363 -.00000003  00000+0 -40584-4 0  9999
2 50476  87.9195 330.9924 0001756  94.3542 265.7791 13.18686308224592
ONEWEB-0397             
1 50477U 21132J   26190.64186563  .00000017  00000+0  11023-4 0  9997
2 50477  87.9199 330.9892 0001579  95.4343 264.6970 13.18687139224573
ONEWEB-0398             
1 50478U 21132K   26189.95571943  .00006090  00000+0  17142-1 0  9992
2 50478  87.8884  16.7242 0002454  90.1716 269.9693 13.11389929218461
ONEWEB-0399             
1 50479U 21132L   26189.94214069 -.00000340  00000+0 -99545-3 0  9998
2 50479  87.8889  16.7379 0001684  74.2709 285.8605 13.11417914218452
ONEWEB-0400             
1 50480U 21132M   26190.61993229  .00000082  00000+0  17583-3 0  9991
2 50480  87.9192 330.9835 0002018  98.1142 262.0219 13.18684526224567
ONEWEB-0401             
1 50481U 21132N   26189.90671080  .00000027  00000+0  35770-4 0  9998
2 50481  87.9185 331.1236 0001683 105.2515 254.8804 13.18685519224471
ONEWEB-0402             
1 50482U 21132P   26190.62837367  .00000004  00000+0 -21381-4 0  9991
2 50482  87.9189 330.9681 0001446 107.0856 253.0435 13.18687268224599
